H1 CPF 01  gfz 2021 12 19 13  8532 tandemx   
H2 1003001  6202 36605    2021 12 19 12 59 42 2021 12 24 00 00 42   120 1 1  0 0 0
H9
10 0 59571  65502.000000  0    6734738.901   -110721.201  -1456572.592
10 0 59571  65622.000000  0    6861077.442   -293507.686   -561959.088
10 0 59571  65742.000000  0    6864401.549   -472301.740    342539.654
10 0 59571  65862.000000  0    6744705.006   -641822.898   1241008.360
10 0 59571  65982.000000  0    6504246.243   -796971.330   2117624.681
10 0 59571  66102.000000  0    6147505.919   -932958.123   2956947.810
10 0 59571  66222.000000  0    5681097.575  -1045428.480   3744198.424
10 0 59571  66342.000000  0    5113638.240  -1130574.593   4465523.971
10 0 59571  66462.000000  0    4455579.712  -1185236.628   5108245.890
10 0 59571  66582.000000  0    3719005.608  -1206986.967   5661081.999
10 0 59571  66702.000000  0    2917400.237  -1194197.308   6114341.839
10 0 59571  66822.000000  0    2065393.900  -1146088.080   6460091.242
10 0 59571  66942.000000  0    1178491.121  -1062758.676   6692285.842
10 0 59571  67062.000000  0     272784.358   -945197.616   6806871.412
10 0 59571  67182.000000  0    -635339.327   -795272.351   6801849.014
10 0 59571  67302.000000  0   -1529493.718   -615699.816   6677306.631
10 0 59571  67422.000000  0   -2393587.604   -409997.326   6435417.507
10 0 59571  67542.000000  0   -3212113.107   -182414.778   6080405.227
10 0 59571  67662.000000  0   -3970425.333     62150.839   5618475.696
10 0 59571  67782.000000  0   -4655008.794    318257.171   5057714.912
10 0 59571  67902.000000  0   -5253724.789    580032.583   4407953.108
10 0 59571  68022.000000  0   -5756035.265    841304.787   3680596.766
10 0 59571  68142.000000  0   -6153197.012   1095739.433   2888430.915
10 0 59571  68262.000000  0   -6438423.668   1336985.629   2045394.931
10 0 59571  68382.000000  0   -6607010.572   1558824.474   1166334.547
10 0 59571  68502.000000  0   -6656419.713   1755317.695    266734.507
10 0 59571  68622.000000  0   -6586320.064   1920952.215   -637563.041
10 0 59571  68742.000000  0   -6398582.747   2050776.105  -1530646.523
10 0 59571  68862.000000  0   -6097232.643   2140523.462  -2396822.897
10 0 59571  68982.000000  0   -5688357.113   2186725.345  -3220901.181
10 0 59571  69102.000000  0   -5179972.973   2186802.864  -3988463.737
10 0 59571  69222.000000  0   -4581857.540   2139140.212  -4686118.541
10 0 59571  69342.000000  0   -3905349.041   2043137.010  -5301728.662
10 0 59571  69462.000000  0   -3163122.066   1899239.283  -5824615.104
10 0 59571  69582.000000  0   -2368944.244   1708948.807  -6245732.005
10 0 59571  69702.000000  0   -1537416.878   1474810.635  -6557812.772
10 0 59571  69822.000000  0    -683705.861   1200379.188  -6755482.901
10 0 59571  69942.000000  0     176730.725    890164.000  -6835342.156
10 0 59571  70062.000000  0    1028415.006    549556.978  -6796016.629
10 0 59571  70182.000000  0    1856121.713    184740.633  -6638182.110
10 0 59571  70302.000000  0    2645144.635   -197421.515  -6364552.816
10 0 59571  70422.000000  0    3381553.041   -589509.908  -5979840.306
10 0 59571  70542.000000  0    4052435.165   -983688.425  -5490679.652
10 0 59571  70662.000000  0    4646124.691  -1371855.870  -4905526.599
10 0 59571  70782.000000  0    5152409.050  -1745808.824  -4234523.347
10 0 59571  70902.000000  0    5562713.027  -2097411.289  -3489333.180
10 0 59571  71022.000000  0    5870254.424  -2418768.090  -2682946.040
10 0 59571  71142.000000  0    6070167.413  -2702398.540  -1829456.704
10 0 59571  71262.000000  0    6159589.501  -2941405.854   -943819.520
10 0 59571  71382.000000  0    6137710.424  -3129638.258    -41584.328
10 0 59571  71502.000000  0    6005780.303  -3261837.674    861381.990
10 0 59571  71622.000000  0    5767077.419  -3333772.147   1749182.448
10 0 59571  71742.000000  0    5426832.949  -3342347.414   2606180.257
10 0 59571  71862.000000  0    4992116.041  -3285695.149   3417282.080
10 0 59571  71982.000000  0    4471683.337  -3163234.958   4168210.643
10 0 59571  72102.000000  0    3875797.659  -2975709.881   4845759.443
10 0 59571  72222.000000  0    3216018.307  -2725195.329   5438027.673
10 0 59571  72342.000000  0    2504968.619  -2415078.898   5934627.183
10 0 59571  72462.000000  0    1756088.489  -2050013.820   6326860.309
10 0 59571  72582.000000  0     983375.791  -1635847.366   6607866.590
10 0 59571  72702.000000  0     201121.800  -1179525.018   6772736.684
10 0 59571  72822.000000  0    -576353.857   -688972.216   6818592.473
10 0 59571  72942.000000  0   -1334964.432   -172956.152   6744633.395
10 0 59571  73062.000000  0   -2061110.122    359070.580   6552149.537
10 0 59571  73182.000000  0   -2741921.054    897142.537   6244500.750
10 0 59571  73302.000000  0   -3365485.902   1430967.057   5827061.994
10 0 59571  73422.000000  0   -3921062.850   1950120.275   5307135.628
10 0 59571  73542.000000  0   -4399269.887   2444250.944   4693830.444
10 0 59571  73662.000000  0   -4792250.132   2903288.272   3997907.084
10 0 59571  73782.000000  0   -5093807.305   3317648.265   3231591.996
10 0 59571  73902.000000  0   -5299509.735   3678435.292   2408364.404
10 0 59571  74022.000000  0   -5406760.362   3977634.576   1542718.168
10 0 59571  74142.000000  0   -5414830.515   4208290.087    649901.413
10 0 59571  74262.000000  0   -5324854.519   4364662.196   -254359.805
10 0 59571  74382.000000  0   -5139787.223   4442362.086  -1154146.390
10 0 59571  74502.000000  0   -4864324.878   4438459.940  -2033636.200
10 0 59571  74622.000000  0   -4504789.732   4351562.104  -2877391.517
10 0 59571  74742.000000  0   -4068982.933   4181855.819  -3670635.591
10 0 59571  74862.000000  0   -3566010.169   3931121.868  -4399513.016
10 0 59571  74982.000000  0   -3006085.468   3602715.559  -5051328.630
10 0 59571  75102.000000  0   -2400319.593   3201517.321  -5614761.225
10 0 59571  75222.000000  0   -1760497.201   2733855.513  -6080051.946
10 0 59571  75342.000000  0   -1098845.582   2207400.975  -6439163.150
10 0 59571  75462.000000  0    -427801.939   1631037.358  -6685904.959
10 0 59571  75582.000000  0     240216.806   1014710.469  -6816031.230
10 0 59571  75702.000000  0     893037.781    369258.562  -6827304.888
10 0 59571  75822.000000  0    1518949.528   -293774.493  -6719533.460
10 0 59571  75942.000000  0    2106907.233   -962341.294  -6494570.455
10 0 59571  76062.000000  0    2646723.002  -1624103.901  -6156287.084
10 0 59571  76182.000000  0    3129240.326  -2266655.709  -5710512.683
10 0 59571  76302.000000  0    3546490.040  -2877750.001  -5164946.172
10 0 59571  76422.000000  0    3891826.158  -3445533.793  -4529033.935
10 0 59571  76542.000000  0    4160035.192  -3958778.162  -3813815.443
10 0 59571  76662.000000  0    4347419.823  -4407102.361  -3031742.015
10 0 59571  76782.000000  0    4451855.452  -4781188.384  -2196467.289
10 0 59571  76902.000000  0    4472816.361  -5072980.101  -1322612.016
10 0 59571  77022.000000  0    4411369.135  -5275861.741   -425506.735
10 0 59571  77142.000000  0    4270133.800  -5384809.272    479082.038
10 0 59571  77262.000000  0    4053213.390  -5396512.008   1375235.938
10 0 59571  77382.000000  0    3766092.995  -5309459.704   2247174.622
10 0 59571  77502.000000  0    3415509.857  -5123992.540   3079542.035
10 0 59571  77622.000000  0    3009299.767  -4842314.823   3857684.091
10 0 59571  77742.000000  0    2556223.008  -4468469.849   4567911.944
10 0 59571  77862.000000  0    2065774.924  -4008278.104   5197745.432
10 0 59571  77982.000000  0    1547985.313  -3469240.504   5736131.947
10 0 59571  78102.000000  0    1013211.115  -2860408.646   6173637.833
10 0 59571  78222.000000  0     471927.426  -2192226.192   6502607.675
10 0 59571  78342.000000  0     -65478.273  -1476345.201   6717291.278
10 0 59571  78462.000000  0    -588904.468   -725420.815   6813938.730
10 0 59571  78582.000000  0   -1088724.317     47114.161   6790862.398
10 0 59571  78702.000000  0   -1555962.035    827289.559   6648464.277
10 0 59571  78822.000000  0   -1982453.604   1600849.810   6389229.174
10 0 59571  78942.000000  0   -2360989.854   2353513.485   6017684.105
10 0 59571  79062.000000  0   -2685439.287   3071237.119   5540324.152
10 0 59571  79182.000000  0   -2950849.211   3740478.993   4965505.386
10 0 59571  79302.000000  0   -3153524.230   4348458.665   4303305.043
10 0 59571  79422.000000  0   -3291078.913   4883407.089   3565349.555
10 0 59571  79542.000000  0   -3362463.820   5334801.970   2764612.596
10 0 59571  79662.000000  0   -3367963.630   5693581.947   1915185.959
10 0 59571  79782.000000  0   -3309167.860   5952333.847   1032028.120
10 0 59571  79902.000000  0   -3188914.418   6105450.600    130695.922
10 0 59571  80022.000000  0   -3011207.228   6149254.632   -772937.805
10 0 59571  80142.000000  0   -2781110.422   6082081.855  -1662974.030
10 0 59571  80262.000000  0   -2504619.506   5904323.256  -2523778.375
10 0 59571  80382.000000  0   -2188513.798   5618422.792  -3340261.313
10 0 59571  80502.000000  0   -1840196.960   5228837.471  -4098144.666
10 0 59571  80622.000000  0   -1467528.394   4741956.913  -4784210.778
10 0 59571  80742.000000  0   -1078650.353   4165987.422  -5386527.305
10 0 59571  80862.000000  0    -681814.089   3510804.648  -5894647.452
10 0 59571  80982.000000  0    -285208.068   2787775.805  -6299782.360
10 0 59571  81102.000000  0     103207.348   2009556.025  -6594941.326
10 0 59571  81222.000000  0     475854.783   1189865.711  -6775041.009
10 0 59571  81342.000000  0     825683.227    343250.334  -6836984.631
10 0 59571  81462.000000  0    1146297.924   -515173.457  -6779709.223
10 0 59571  81582.000000  0    1432073.817  -1369982.274  -6604200.622
10 0 59571  81702.000000  0    1678251.571  -2205715.306  -6313477.518
10 0 59571  81822.000000  0    1881016.153  -3007146.760  -5912546.110
10 0 59571  81942.000000  0    2037556.090  -3759559.731  -5408324.611
99
